KUIPER-00133            
1 65764U 25217C   25364.28552067  .00003744  00000+0  51940-3 0  9999
2 65764  51.9045   0.0037 0012062  89.0147 271.2198 14.79954190 14468
KUIPER-00139            
1 65765U 25217D   25365.11284291  .00018401  00000+0  14051-2 0  9991
2 65765  51.8867 347.8354 0008933  83.4407 276.7582 15.01980821 14703
KUIPER-00142            
1 65766U 25217E   25365.16668980 -.01070736  00000+0 -97043-1 0  9991
2 65766  51.8907 339.4914 0003181 100.7249 243.9560 14.98009700  5160
KUIPER-00145            
1 65767U 25217F   25365.16668980 -.00961203  00000+0 -10473+0 0  9999
2 65767  51.9098 341.5491 0008200  78.6660 187.6085 14.90449020  4513
KUIPER-00147            
1 65768U 25217G   25365.16668980 -.01035294  00000+0 -11534+0 0  9992
2 65768  51.9202 344.0038 0011540  85.2330  33.4056 14.89745994  5834
KUIPER-00148            
1 65769U 25217H   25365.15101802  .00031634  00000+0  19938-2 0  9997
2 65769  51.8788 342.2179 0010347 107.1198 253.0910 15.08829146 14786
KUIPER-00150            
1 65770U 25217J   25364.42322414  .00000599  00000+0  10752-3 0  9994
2 65770  51.9039 356.8937 0000394 120.3963 239.7038 14.79939807 14515
KUIPER-00151            
1 65771U 25217K   25365.16668980 -.00030673  00000+0 -38967-2 0  9993
2 65771  51.9019 346.1207 0000353  14.7193 297.1458 14.81160611  5686
